[{"OBJECT_NAME":"ONEWEB-0161","OBJECT_ID":"2021-025M","EPOCH":"2025-12-01T19:01:37.398144","MEAN_MOTION":13.13469863,"ECCENTRICITY":0.0001596,"INCLINATION":87.8987,"RA_OF_ASC_NODE":359.46,"ARG_OF_PERICENTER":90.1149,"MEAN_ANOMALY":270.0163,"EPHEMERIS_TYPE":0,"CLASSIFICATION_TYPE":"U","NORAD_CAT_ID":48053,"ELEMENT_SET_NO":999,"REV_AT_EPOCH":22759,"BSTAR":-0.00051643,"MEAN_MOTION_DOT":-1.76e-6,"MEAN_MOTION_DDOT":0},{"OBJECT_NAME":"ONEWEB-0158","OBJECT_ID":"2021-025N","EPOCH":"2025-12-01T14:23:44.270016","MEAN_MOTION":13.13469417,"ECCENTRICITY":0.000208,"INCLINATION":87.8991,"RA_OF_ASC_NODE":359.4821,"ARG_OF_PERICENTER":95.064,"MEAN_ANOMALY":265.0726,"EPHEMERIS_TYPE":0,"CLASSIFICATION_TYPE":"U","NORAD_CAT_ID":48054,"ELEMENT_SET_NO":999,"REV_AT_EPOCH":22769,"BSTAR":0.00079656,"MEAN_MOTION_DOT":3.04e-6,"MEAN_MOTION_DDOT":0},{"OBJECT_NAME":"ONEWEB-0157","OBJECT_ID":"2021-025P","EPOCH":"2025-12-01T18:39:41.261760","MEAN_MOTION":13.13469514,"ECCENTRICITY":0.0001529,"INCLINATION":87.8989,"RA_OF_ASC_NODE":359.453,"ARG_OF_PERICENTER":81.1339,"MEAN_ANOMALY":278.9963,"EPHEMERIS_TYPE":0,"CLASSIFICATION_TYPE":"U","NORAD_CAT_ID":48055,"ELEMENT_SET_NO":999,"REV_AT_EPOCH":22765,"BSTAR":-3.2562e-5,"MEAN_MOTION_DOT":1.0e-8,"MEAN_MOTION_DDOT":0},{"OBJECT_NAME":"ONEWEB-0162","OBJECT_ID":"2021-025Q","EPOCH":"2025-12-01T19:55:03.749664","MEAN_MOTION":13.13471202,"ECCENTRICITY":0.0001591,"INCLINATION":87.8995,"RA_OF_ASC_NODE":359.4444,"ARG_OF_PERICENTER":95.618,"MEAN_ANOMALY":264.513,"EPHEMERIS_TYPE":0,"CLASSIFICATION_TYPE":"U","NORAD_CAT_ID":48056,"ELEMENT_SET_NO":999,"REV_AT_EPOCH":22763,"BSTAR":0.0010609,"MEAN_MOTION_DOT":4.0e-6,"MEAN_MOTION_DDOT":0},{"OBJECT_NAME":"ONEWEB-0155","OBJECT_ID":"2021-025R","EPOCH":"2025-12-01T14:35:55.132800","MEAN_MOTION":13.1347112,"ECCENTRICITY":0.0001823,"INCLINATION":87.8992,"RA_OF_ASC_NODE":359.4933,"ARG_OF_PERICENTER":88.4395,"MEAN_ANOMALY":271.6943,"EPHEMERIS_TYPE":0,"CLASSIFICATION_TYPE":"U","NORAD_CAT_ID":48057,"ELEMENT_SET_NO":999,"REV_AT_EPOCH":22774,"BSTAR":0.0007202,"MEAN_MOTION_DOT":2.76e-6,"MEAN_MOTION_DDOT":0},{"OBJECT_NAME":"ONEWEB-0149","OBJECT_ID":"2021-025S","EPOCH":"2025-12-01T18:46:59.848032","MEAN_MOTION":13.13469728,"ECCENTRICITY":0.0001579,"INCLINATION":87.899,"RA_OF_ASC_NODE":359.4528,"ARG_OF_PERICENTER":98.047,"MEAN_ANOMALY":262.0839,"EPHEMERIS_TYPE":0,"CLASSIFICATION_TYPE":"U","NORAD_CAT_ID":48058,"ELEMENT_SET_NO":999,"REV_AT_EPOCH":22757,"BSTAR":-0.00057067,"MEAN_MOTION_DOT":-1.96e-6,"MEAN_MOTION_DDOT":0},{"OBJECT_NAME":"ONEWEB-0148","OBJECT_ID":"2021-025T","EPOCH":"2025-12-01T19:43:04.323648","MEAN_MOTION":13.13470711,"ECCENTRICITY":0.0001196,"INCLINATION":87.8982,"RA_OF_ASC_NODE":359.4652,"ARG_OF_PERICENTER":104.2655,"MEAN_ANOMALY":255.8607,"EPHEMERIS_TYPE":0,"CLASSIFICATION_TYPE":"U","NORAD_CAT_ID":48059,"ELEMENT_SET_NO":999,"REV_AT_EPOCH":22770,"BSTAR":0.00076899,"MEAN_MOTION_DOT":2.94e-6,"MEAN_MOTION_DDOT":0},{"OBJECT_NAME":"ONEWEB-0160","OBJECT_ID":"2021-025U","EPOCH":"2025-12-01T18:17:45.525408","MEAN_MOTION":13.13470016,"ECCENTRICITY":0.000243,"INCLINATION":87.8984,"RA_OF_ASC_NODE":359.4744,"ARG_OF_PERICENTER":105.1367,"MEAN_ANOMALY":255.0031,"EPHEMERIS_TYPE":0,"CLASSIFICATION_TYPE":"U","NORAD_CAT_ID":48060,"ELEMENT_SET_NO":999,"REV_AT_EPOCH":22764,"BSTAR":0.00088917,"MEAN_MOTION_DOT":3.37e-6,"MEAN_MOTION_DDOT":0},{"OBJECT_NAME":"ONEWEB-0163","OBJECT_ID":"2021-025V","EPOCH":"2025-12-01T14:16:23.928096","MEAN_MOTION":13.13474026,"ECCENTRICITY":0.0001599,"INCLINATION":87.8992,"RA_OF_ASC_NODE":359.4931,"ARG_OF_PERICENTER":84.1959,"MEAN_ANOMALY":275.9353,"EPHEMERIS_TYPE":0,"CLASSIFICATION_TYPE":"U","NORAD_CAT_ID":48061,"ELEMENT_SET_NO":999,"REV_AT_EPOCH":22774,"BSTAR":-0.0022166,"MEAN_MOTION_DOT":-7.97e-6,"MEAN_MOTION_DDOT":0},{"OBJECT_NAME":"ONEWEB-0159","OBJECT_ID":"2021-025W","EPOCH":"2025-12-01T19:33:19.449216","MEAN_MOTION":13.13471306,"ECCENTRICITY":0.0001522,"INCLINATION":87.8993,"RA_OF_ASC_NODE":359.433,"ARG_OF_PERICENTER":90.6548,"MEAN_ANOMALY":269.4756,"EPHEMERIS_TYPE":0,"CLASSIFICATION_TYPE":"U","NORAD_CAT_ID":48062,"ELEMENT_SET_NO":999,"REV_AT_EPOCH":22769,"BSTAR":0.00074578,"MEAN_MOTION_DOT":2.85e-6,"MEAN_MOTION_DDOT":0},{"OBJECT_NAME":"ONEWEB-0164","OBJECT_ID":"2021-025X","EPOCH":"2025-12-01T19:06:29.825856","MEAN_MOTION":13.13470973,"ECCENTRICITY":0.0001851,"INCLINATION":87.8993,"RA_OF_ASC_NODE":359.4436,"ARG_OF_PERICENTER":93.7868,"MEAN_ANOMALY":266.3473,"EPHEMERIS_TYPE":0,"CLASSIFICATION_TYPE":"U","NORAD_CAT_ID":48063,"ELEMENT_SET_NO":999,"REV_AT_EPOCH":22767,"BSTAR":-0.00062574,"MEAN_MOTION_DOT":-2.16e-6,"MEAN_MOTION_DDOT":0},{"OBJECT_NAME":"ONEWEB-0167","OBJECT_ID":"2021-025Y","EPOCH":"2025-12-01T14:17:38.475744","MEAN_MOTION":13.13468299,"ECCENTRICITY":0.0002041,"INCLINATION":87.8984,"RA_OF_ASC_NODE":359.5123,"ARG_OF_PERICENTER":72.8909,"MEAN_ANOMALY":287.2444,"EPHEMERIS_TYPE":0,"CLASSIFICATION_TYPE":"U","NORAD_CAT_ID":48064,"ELEMENT_SET_NO":999,"REV_AT_EPOCH":22763,"BSTAR":0.00082074,"MEAN_MOTION_DOT":3.12e-6,"MEAN_MOTION_DDOT":0},{"OBJECT_NAME":"ONEWEB-0166","OBJECT_ID":"2021-025Z","EPOCH":"2025-12-01T14:50:33.050976","MEAN_MOTION":13.13469537,"ECCENTRICITY":0.0001563,"INCLINATION":87.8991,"RA_OF_ASC_NODE":359.4631,"ARG_OF_PERICENTER":94.8318,"MEAN_ANOMALY":265.2989,"EPHEMERIS_TYPE":0,"CLASSIFICATION_TYPE":"U","NORAD_CAT_ID":48065,"ELEMENT_SET_NO":999,"REV_AT_EPOCH":22771,"BSTAR":9.7047e-5,"MEAN_MOTION_DOT":4.8e-7,"MEAN_MOTION_DDOT":0},{"OBJECT_NAME":"ONEWEB-0151","OBJECT_ID":"2021-025AA","EPOCH":"2025-12-01T18:32:22.830144","MEAN_MOTION":13.13469674,"ECCENTRICITY":0.0001822,"INCLINATION":87.8992,"RA_OF_ASC_NODE":359.4586,"ARG_OF_PERICENTER":88.5798,"MEAN_ANOMALY":271.554,"EPHEMERIS_TYPE":0,"CLASSIFICATION_TYPE":"U","NORAD_CAT_ID":48066,"ELEMENT_SET_NO":999,"REV_AT_EPOCH":22767,"BSTAR":0.00029468,"MEAN_MOTION_DOT":1.2e-6,"MEAN_MOTION_DDOT":0},{"OBJECT_NAME":"ONEWEB-0170","OBJECT_ID":"2021-025AB","EPOCH":"2025-12-01T15:05:10.614912","MEAN_MOTION":13.13470081,"ECCENTRICITY":0.0002216,"INCLINATION":87.8987,"RA_OF_ASC_NODE":359.4928,"ARG_OF_PERICENTER":92.1035,"MEAN_ANOMALY":268.0347,"EPHEMERIS_TYPE":0,"CLASSIFICATION_TYPE":"U","NORAD_CAT_ID":48067,"ELEMENT_SET_NO":999,"REV_AT_EPOCH":22761,"BSTAR":-0.00054341,"MEAN_MOTION_DOT":-1.86e-6,"MEAN_MOTION_DDOT":0},{"OBJECT_NAME":"ONEWEB-0168","OBJECT_ID":"2021-025AC","EPOCH":"2025-12-01T18:22:37.875360","MEAN_MOTION":13.13470207,"ECCENTRICITY":0.0001598,"INCLINATION":87.8995,"RA_OF_ASC_NODE":359.4498,"ARG_OF_PERICENTER":88.5418,"MEAN_ANOMALY":271.5894,"EPHEMERIS_TYPE":0,"CLASSIFICATION_TYPE":"U","NORAD_CAT_ID":48068,"ELEMENT_SET_NO":999,"REV_AT_EPOCH":22764,"BSTAR":0.00069241,"MEAN_MOTION_DOT":2.66e-6,"MEAN_MOTION_DDOT":0},{"OBJECT_NAME":"ONEWEB-0173","OBJECT_ID":"2021-025AD","EPOCH":"2025-12-01T14:31:03.177696","MEAN_MOTION":13.13469973,"ECCENTRICITY":0.0001654,"INCLINATION":87.8993,"RA_OF_ASC_NODE":359.4894,"ARG_OF_PERICENTER":78.8916,"MEAN_ANOMALY":281.2399,"EPHEMERIS_TYPE":0,"CLASSIFICATION_TYPE":"U","NORAD_CAT_ID":48069,"ELEMENT_SET_NO":999,"REV_AT_EPOCH":22786,"BSTAR":0.001028,"MEAN_MOTION_DOT":3.88e-6,"MEAN_MOTION_DDOT":0}]
