ONEWEB-0161             
1 48053U 21025M   25335.79279396 -.00000176  00000+0 -51643-3 0  9997
2 48053  87.8987 359.4600 0001596  90.1149 270.0163 13.13469863227599
ONEWEB-0158             
1 48054U 21025N   25335.59981794  .00000304  00000+0  79656-3 0  9993
2 48054  87.8991 359.4821 0002080  95.0640 265.0726 13.13469417227694
ONEWEB-0157             
1 48055U 21025P   25335.77756090  .00000001  00000+0 -32562-4 0  9994
2 48055  87.8989 359.4530 0001529  81.1339 278.9963 13.13469514227657
ONEWEB-0162             
1 48056U 21025Q   25335.82990451  .00000400  00000+0  10609-2 0  9990
2 48056  87.8995 359.4444 0001591  95.6180 264.5130 13.13471202227634
ONEWEB-0155             
1 48057U 21025R   25335.60827700  .00000276  00000+0  72020-3 0  9990
2 48057  87.8992 359.4933 0001823  88.4395 271.6943 13.13471120227743
ONEWEB-0149             
1 48058U 21025S   25335.78263713 -.00000196  00000+0 -57067-3 0  9995
2 48058  87.8990 359.4528 0001579  98.0470 262.0839 13.13469728227571
ONEWEB-0148             
1 48059U 21025T   25335.82157782  .00000294  00000+0  76899-3 0  9990
2 48059  87.8982 359.4652 0001196 104.2655 255.8607 13.13470711227703
ONEWEB-0160             
1 48060U 21025U   25335.76233247  .00000337  00000+0  88917-3 0  9998
2 48060  87.8984 359.4744 0002430 105.1367 255.0031 13.13470016227645
ONEWEB-0163             
1 48061U 21025V   25335.59472139 -.00000797  00000+0 -22166-2 0  9990
2 48061  87.8992 359.4931 0001599  84.1959 275.9353 13.13474026227745
ONEWEB-0159             
1 48062U 21025W   25335.81480844  .00000285  00000+0  74578-3 0  9993
2 48062  87.8993 359.4330 0001522  90.6548 269.4756 13.13471306227699
ONEWEB-0164             
1 48063U 21025X   25335.79617854 -.00000216  00000+0 -62574-3 0  9993
2 48063  87.8993 359.4436 0001851  93.7868 266.3473 13.13470973227670
ONEWEB-0167             
1 48064U 21025Y   25335.59558421  .00000312  00000+0  82074-3 0  9998
2 48064  87.8984 359.5123 0002041  72.8909 287.2444 13.13468299227635
ONEWEB-0166             
1 48065U 21025Z   25335.61843809  .00000048  00000+0  97047-4 0  9992
2 48065  87.8991 359.4631 0001563  94.8318 265.2989 13.13469537227718
ONEWEB-0151             
1 48066U 21025AA  25335.77248646  .00000120  00000+0  29468-3 0  9990
2 48066  87.8992 359.4586 0001822  88.5798 271.5540 13.13469674227679
ONEWEB-0170             
1 48067U 21025AB  25335.62859508 -.00000186  00000+0 -54341-3 0  9992
2 48067  87.8987 359.4928 0002216  92.1035 268.0347 13.13470081227611
ONEWEB-0168             
1 48068U 21025AC  25335.76571615  .00000266  00000+0  69241-3 0  9990
2 48068  87.8995 359.4498 0001598  88.5418 271.5894 13.13470207227648
ONEWEB-0173             
1 48069U 21025AD  25335.60489789  .00000388  00000+0  10280-2 0  9997
2 48069  87.8993 359.4894 0001654  78.8916 281.2399 13.13469973227865
